[{"OBJECT_NAME":"QIANFAN-83","OBJECT_ID":"2025-046L","EPOCH":"2026-03-09T21:39:43.623936","MEAN_MOTION":13.62023552,"ECCENTRICITY":0.00127612,"INCLINATION":88.9752,"RA_OF_ASC_NODE":310.5195,"ARG_OF_PERICENTER":211.9819,"MEAN_ANOMALY":148.0565,"EPHEMERIS_TYPE":0,"CLASSIFICATION_TYPE":"U","NORAD_CAT_ID":63169,"ELEMENT_SET_NO":999,"REV_AT_EPOCH":5946,"BSTAR":0.00024174606,"MEAN_MOTION_DOT":1.99e-6,"MEAN_MOTION_DDOT":0},{"OBJECT_NAME":"DIAMANT B-P4 DEB","OBJECT_ID":"1975-010D","EPOCH":"2026-03-09T13:37:29.482176","MEAN_MOTION":13.94828073,"ECCENTRICITY":0.0178314,"INCLINATION":49.8015,"RA_OF_ASC_NODE":266.8791,"ARG_OF_PERICENTER":246.6915,"MEAN_ANOMALY":111.5129,"EPHEMERIS_TYPE":0,"CLASSIFICATION_TYPE":"U","NORAD_CAT_ID":7655,"ELEMENT_SET_NO":999,"REV_AT_EPOCH":59439,"BSTAR":0.00020404,"MEAN_MOTION_DOT":1.69e-6,"MEAN_MOTION_DDOT":0}]
